start=new Date('2023-02-12T00:00:00.000Z').valueOf();
sats=[{"NORAD_CAT_ID":"48296","TLE_LINE1":"1 48296U 21036W   23042.82343498  .00018257  00000-0  12404-2 0  9999","CLASSIFICATION_TYPE":"U","ECCENTRICITY":"0.00012440","SEMIMAJOR_AXIS":"6925.261","RCS_SIZE":"LARGE","EPHEMERIS_TYPE":"0","MEAN_ANOMALY":"263.8023","ELEMENT_SET_NO":"999","CENTER_NAME":"EARTH","REV_AT_EPOCH":"9922","REF_FRAME":"TEME","INCLINATION":"53.0527","BSTAR":"0.00124040000000","OBJECT_TYPE":"PAYLOAD","FILE":"3786577","OBJECT_ID":"2021-036W","COUNTRY_CODE":"US","APOAPSIS":"547.988","TLE_LINE2":"2 48296  53.0527  77.8749 0001244  96.3108 263.8023 15.06428554 99229","ARG_OF_PERICENTER":"96.3108","RA_OF_ASC_NODE":"77.8749","MEAN_MOTION_DDOT":"0.0000000000000","TIME_SYSTEM":"UTC","LAUNCH_DATE":"2021-04-29","MEAN_MOTION_DOT":"0.00018257","SITE":"AFETR","GP_ID":"225182696","DECAY_DATE":null,"PERIAPSIS":"546.265","MEAN_ELEMENT_THEORY":"SGP4","MEAN_MOTION":"15.06428554","PERIOD":"95.590","OBJECT_NAME":"STARLINK-2546","EPOCH":"2023-02-11T19:45:44.782272"},{"REF_FRAME":"TEME","REV_AT_EPOCH":"9922","FILE":"3786577","OBJECT_TYPE":"PAYLOAD","BSTAR":"0.00038381000000","INCLINATION":"53.0534","SEMIMAJOR_AXIS":"6925.359","ECCENTRICITY":"0.00015930","TLE_LINE1":"1 48297U 21036X   23042.81976488  .00005439  00000-0  38381-3 0  9991","NORAD_CAT_ID":"48297","CLASSIFICATION_TYPE":"U","CENTER_NAME":"EARTH","ELEMENT_SET_NO":"999","MEAN_ANOMALY":"270.6710","EPHEMERIS_TYPE":"0","RCS_SIZE":"LARGE","OBJECT_NAME":"STARLINK-2544","PERIOD":"95.592","MEAN_MOTION":"15.06396549","MEAN_ELEMENT_THEORY":"SGP4","EPOCH":"2023-02-11T19:40:27.685632","LAUNCH_DATE":"2021-04-29","MEAN_MOTION_DOT":"0.00005439","TIME_SYSTEM":"UTC","MEAN_MOTION_DDOT":"0.0000000000000","ARG_OF_PERICENTER":"89.4461","RA_OF_ASC_NODE":"77.8948","APOAPSIS":"548.327","TLE_LINE2":"2 48297  53.0534  77.8948 0001593  89.4461 270.6710 15.06396549 99228","COUNTRY_CODE":"US","OBJECT_ID":"2021-036X","PERIAPSIS":"546.121","DECAY_DATE":null,"GP_ID":"225182946","SITE":"AFETR"},{"REF_FRAME":"TEME","REV_AT_EPOCH":"9922","BSTAR":"0.00016125000000","INCLINATION":"53.0526","FILE":"3786577","OBJECT_TYPE":"PAYLOAD","TLE_LINE1":"1 48298U 21036Y   23042.81607736  .00002121  00000-0  16125-3 0  9996","CLASSIFICATION_TYPE":"U","NORAD_CAT_ID":"48298","SEMIMAJOR_AXIS":"6925.347","ECCENTRICITY":"0.00016140","MEAN_ANOMALY":"282.3288","EPHEMERIS_TYPE":"0","RCS_SIZE":"LARGE","CENTER_NAME":"EARTH","ELEMENT_SET_NO":"999","MEAN_MOTION":"15.06400486","MEAN_ELEMENT_THEORY":"SGP4","OBJECT_NAME":"STARLINK-2559","PERIOD":"95.592","EPOCH":"2023-02-11T19:35:09.083904","RA_OF_ASC_NODE":"77.9150","ARG_OF_PERICENTER":"77.7882","APOAPSIS":"548.330","TLE_LINE2":"2 48298  53.0526  77.9150 0001614  77.7882 282.3288 15.06400486 99223","OBJECT_ID":"2021-036Y","COUNTRY_CODE":"US","MEAN_MOTION_DOT":"0.00002121","LAUNCH_DATE":"2021-04-29","MEAN_MOTION_DDOT":"0.0000000000000","TIME_SYSTEM":"UTC","GP_ID":"225183197","DECAY_DATE":null,"SITE":"AFETR","PERIAPSIS":"546.094"},{"REF_FRAME":"TEME","REV_AT_EPOCH":"9922","OBJECT_TYPE":"PAYLOAD","FILE":"3786577","INCLINATION":"53.0560","BSTAR":"0.00002779500000","ECCENTRICITY":"0.00016080","SEMIMAJOR_AXIS":"6925.342","CLASSIFICATION_TYPE":"U","TLE_LINE1":"1 48299U 21036Z   23042.81238949  .00000133  00000-0  27795-4 0  9990","NORAD_CAT_ID":"48299","CENTER_NAME":"EARTH","ELEMENT_SET_NO":"999","EPHEMERIS_TYPE":"0","RCS_SIZE":"LARGE","MEAN_ANOMALY":"274.6825","OBJECT_NAME":"STARLINK-2557","PERIOD":"95.592","MEAN_ELEMENT_THEORY":"SGP4","MEAN_MOTION":"15.06402229","EPOCH":"2023-02-11T19:29:50.451936","MEAN_MOTION_DDOT":"0.0000000000000","TIME_SYSTEM":"UTC","LAUNCH_DATE":"2021-04-29","MEAN_MOTION_DOT":"0.00000133","APOAPSIS":"548.320","TLE_LINE2":"2 48299  53.0560  77.9222 0001608  85.4348 274.6825 15.06402229 99226","OBJECT_ID":"2021-036Z","COUNTRY_CODE":"US","RA_OF_ASC_NODE":"77.9222","ARG_OF_PERICENTER":"85.4348","PERIAPSIS":"546.093","SITE":"AFETR","DECAY_DATE":null,"GP_ID":"225183948"},{"CENTER_NAME":"EARTH","ELEMENT_SET_NO":"999","EPHEMERIS_TYPE":"0","RCS_SIZE":"LARGE","MEAN_ANOMALY":"271.4470","ECCENTRICITY":"0.00015480","SEMIMAJOR_AXIS":"6925.337","TLE_LINE1":"1 48300U 21036AA  23042.40601396  .00002151  00000-0  16327-3 0  9998","NORAD_CAT_ID":"48300","CLASSIFICATION_TYPE":"U","OBJECT_TYPE":"PAYLOAD","FILE":"3786577","INCLINATION":"53.0555","BSTAR":"0.00016327000000","REF_FRAME":"TEME","REV_AT_EPOCH":"9902","PERIAPSIS":"546.130","SITE":"AFETR","DECAY_DATE":null,"GP_ID":"225182196","MEAN_MOTION_DDOT":"0.0000000000000","TIME_SYSTEM":"UTC","MEAN_MOTION_DOT":"0.00002151","LAUNCH_DATE":"2021-04-29","APOAPSIS":"548.275","TLE_LINE2":"2 48300  53.0555  89.7436 0001548  88.6697 271.4470 15.06403609 99028","OBJECT_ID":"2021-036AA","COUNTRY_CODE":"US","RA_OF_ASC_NODE":"89.7436","ARG_OF_PERICENTER":"88.6697","EPOCH":"2023-02-11T09:44:39.606144","OBJECT_NAME":"STARLINK-2538","PERIOD":"95.592","MEAN_ELEMENT_THEORY":"SGP4","MEAN_MOTION":"15.06403609"},{"MEAN_ELEMENT_THEORY":"SGP4","MEAN_MOTION":"15.06403530","OBJECT_NAME":"STARLINK-2537","PERIOD":"95.592","EPOCH":"2023-02-11T11:14:53.153664","TLE_LINE2":"2 48301  53.0545  89.4608 0001688 111.9318 248.1850 15.06403530 99027","APOAPSIS":"548.372","COUNTRY_CODE":"US","OBJECT_ID":"2021-036AB","ARG_OF_PERICENTER":"111.9318","RA_OF_ASC_NODE":"89.4608","TIME_SYSTEM":"UTC","MEAN_MOTION_DDOT":"0.0000000000000","MEAN_MOTION_DOT":"0.00000421","LAUNCH_DATE":"2021-04-29","SITE":"AFETR","DECAY_DATE":null,"GP_ID":"225119840","PERIAPSIS":"546.034","REF_FRAME":"TEME","REV_AT_EPOCH":"9902","INCLINATION":"53.0545","BSTAR":"0.00004714400000","OBJECT_TYPE":"PAYLOAD","FILE":"3786144","TLE_LINE1":"1 48301U 21036AB  23042.46867076  .00000421  00000-0  47144-4 0  9994","NORAD_CAT_ID":"48301","CLASSIFICATION_TYPE":"U","ECCENTRICITY":"0.00016880","SEMIMAJOR_AXIS":"6925.338","EPHEMERIS_TYPE":"0","RCS_SIZE":"LARGE","MEAN_ANOMALY":"248.1850","CENTER_NAME":"EARTH","ELEMENT_SET_NO":"999"},{"RA_OF_ASC_NODE":"89.7810","ARG_OF_PERICENTER":"73.8784","COUNTRY_CODE":"US","OBJECT_ID":"2021-036AC","APOAPSIS":"548.149","TLE_LINE2":"2 48302  53.0563  89.7810 0001341  73.8784 286.2353 15.06397730 99019","MEAN_MOTION_DOT":"0.00001371","LAUNCH_DATE":"2021-04-29","MEAN_MOTION_DDOT":"0.0000000000000","TIME_SYSTEM":"UTC","GP_ID":"225183698","DECAY_DATE":null,"SITE":"AFETR","PERIAPSIS":"546.292","MEAN_MOTION":"15.06397730","MEAN_ELEMENT_THEORY":"SGP4","PERIOD":"95.592","OBJECT_NAME":"STARLINK-2556","EPOCH":"2023-02-11T09:34:02.676576","TLE_LINE1":"1 48302U 21036AC  23042.39864209  .00001371  00000-0  11089-3 0  9995","NORAD_CAT_ID":"48302","CLASSIFICATION_TYPE":"U","SEMIMAJOR_AXIS":"6925.356","ECCENTRICITY":"0.00013410","MEAN_ANOMALY":"286.2353","RCS_SIZE":"LARGE","EPHEMERIS_TYPE":"0","ELEMENT_SET_NO":"999","CENTER_NAME":"EARTH","REV_AT_EPOCH":"9901","REF_FRAME":"TEME","BSTAR":"0.00011089000000","INCLINATION":"53.0563","FILE":"3786577","OBJECT_TYPE":"PAYLOAD"},{"MEAN_ELEMENT_THEORY":"SGP4","MEAN_MOTION":"15.06389605","OBJECT_NAME":"STARLINK-2530","PERIOD":"95.593","EPOCH":"2023-02-11T20:36:10.162944","APOAPSIS":"548.591","TLE_LINE2":"2 48303  53.0541  87.7140 0001943  68.9900 291.1296 15.06389605 99083","OBJECT_ID":"2021-036AD","COUNTRY_CODE":"US","RA_OF_ASC_NODE":"87.7140","ARG_OF_PERICENTER":"68.9900","MEAN_MOTION_DDOT":"0.0000000000000","TIME_SYSTEM":"UTC","LAUNCH_DATE":"2021-04-29","MEAN_MOTION_DOT":"-0.00000463","SITE":"AFETR","GP_ID":"225183448","DECAY_DATE":null,"PERIAPSIS":"545.900","REF_FRAME":"TEME","REV_AT_EPOCH":"9908","INCLINATION":"53.0541","BSTAR":"-0.00001214800000","OBJECT_TYPE":"PAYLOAD","FILE":"3786577","NORAD_CAT_ID":"48303","TLE_LINE1":"1 48303U 21036AD  23042.85845096 -.00000463  00000-0 -12148-4 0  9991","CLASSIFICATION_TYPE":"U","ECCENTRICITY":"0.00019430","SEMIMAJOR_AXIS":"6925.380","EPHEMERIS_TYPE":"0","RCS_SIZE":"LARGE","MEAN_ANOMALY":"291.1296","CENTER_NAME":"EARTH","ELEMENT_SET_NO":"999"},{"ELEMENT_SET_NO":"999","CENTER_NAME":"EARTH","MEAN_ANOMALY":"284.6996","RCS_SIZE":"LARGE","EPHEMERIS_TYPE":"0","SEMIMAJOR_AXIS":"6925.371","ECCENTRICITY":"0.00017280","CLASSIFICATION_TYPE":"U","TLE_LINE1":"1 48304U 21036AE  23042.85570346  .00000767  00000-0  70389-4 0  9991","NORAD_CAT_ID":"48304","FILE":"3786577","OBJECT_TYPE":"PAYLOAD","BSTAR":"0.00007038900000","INCLINATION":"53.0543","REV_AT_EPOCH":"9908","REF_FRAME":"TEME","PERIAPSIS":"546.040","GP_ID":"225182697","DECAY_DATE":null,"SITE":"AFETR","LAUNCH_DATE":"2021-04-29","MEAN_MOTION_DOT":"0.00000767","MEAN_MOTION_DDOT":"0.0000000000000","TIME_SYSTEM":"UTC","ARG_OF_PERICENTER":"75.4184","RA_OF_ASC_NODE":"87.7305","OBJECT_ID":"2021-036AE","COUNTRY_CODE":"US","TLE_LINE2":"2 48304  53.0543  87.7305 0001728  75.4184 284.6996 15.06392578 99084","APOAPSIS":"548.433","EPOCH":"2023-02-11T20:32:12.778944","PERIOD":"95.593","OBJECT_NAME":"STARLINK-2524","MEAN_MOTION":"15.06392578","MEAN_ELEMENT_THEORY":"SGP4"},{"REV_AT_EPOCH":"9908","REF_FRAME":"TEME","FILE":"3786577","OBJECT_TYPE":"PAYLOAD","BSTAR":"0.00119900000000","INCLINATION":"53.0529","SEMIMAJOR_AXIS":"6925.334","ECCENTRICITY":"0.00016580","NORAD_CAT_ID":"48305","TLE_LINE1":"1 48305U 21036AF  23042.85106937  .00017625  00000-0  11990-2 0  9995","CLASSIFICATION_TYPE":"U","ELEMENT_SET_NO":"999","CENTER_NAME":"EARTH","MEAN_ANOMALY":"291.2313","RCS_SIZE":"LARGE","EPHEMERIS_TYPE":"0","PERIOD":"95.592","OBJECT_NAME":"STARLINK-2519","MEAN_MOTION":"15.06404849","MEAN_ELEMENT_THEORY":"SGP4","EPOCH":"2023-02-11T20:25:32.393568","MEAN_MOTION_DOT":"0.00017625","LAUNCH_DATE":"2021-04-29","MEAN_MOTION_DDOT":"0.0000000000000","TIME_SYSTEM":"UTC","RA_OF_ASC_NODE":"87.7360","ARG_OF_PERICENTER":"68.8853","OBJECT_ID":"2021-036AF","COUNTRY_CODE":"US","APOAPSIS":"548.347","TLE_LINE2":"2 48305  53.0529  87.7360 0001658  68.8853 291.2313 15.06404849 99083","PERIAPSIS":"546.050","GP_ID":"225182947","DECAY_DATE":null,"SITE":"AFETR"}];
